{
  "type": "FeatureCollection",
  "features": [
    {
      "type": "Feature",
      "properties": {
        "norad_id": 41890,
        "name": "CYGFM07",
        "group": "weather",
        "lat": 10.311319375316996,
        "lon": -60.097732383785015,
        "alt_km": 407.41759061206176,
        "timestamp": "2025-12-27T11:23:19.520647+00:00",
        "meta_object_name": "CYGFM07",
        "meta_object_id": "2016-078G",
        "meta_epoch": "2025-12-27T03:35:06.057024",
        "meta_mean_motion": 15.50632394,
        "meta_eccentricity": 0.0008969,
        "meta_inclination": 34.9473,
        "meta_ra_of_asc_node": 286.9349,
        "meta_arg_of_pericenter": 338.1364,
        "meta_mean_anomaly": 21.8975,
        "meta_ephemeris_type": 0,
        "meta_classification_type": "U",
        "meta_norad_cat_id": 41890,
        "meta_element_set_no": 999,
        "meta_rev_at_epoch": 50219,
        "meta_bstar": 0.00044686,
        "meta_mean_motion_dot": 0.00026503,
        "meta_mean_motion_ddot": 0,
        "tle_line1": "1 41890U 16078G   25361.14937566  .00026503  00000+0  44686-3 0  9998",
        "tle_line2": "2 41890  34.9473 286.9349 0008969 338.1364  21.8975 15.50632394502192"
      },
      "geometry": {
        "type": "Point",
        "coordinates": [
          -60.097732383785015,
          10.311319375316996
        ]
      }
    },
    {
      "type": "Feature",
      "properties": {
        "norad_id": 41891,
        "name": "CYGFM03",
        "group": "weather",
        "lat": -15.280633476308159,
        "lon": 129.7635061566824,
        "alt_km": 418.783803140941,
        "timestamp": "2025-12-27T11:23:19.520657+00:00",
        "meta_object_name": "CYGFM03",
        "meta_object_id": "2016-078H",
        "meta_epoch": "2025-12-27T04:19:02.954784",
        "meta_mean_motion": 15.50526979,
        "meta_eccentricity": 0.0008857,
        "meta_inclination": 34.9429,
        "meta_ra_of_asc_node": 288.6623,
        "meta_arg_of_pericenter": 324.6676,
        "meta_mean_anomaly": 35.3458,
        "meta_ephemeris_type": 0,
        "meta_classification_type": "U",
        "meta_norad_cat_id": 41891,
        "meta_element_set_no": 999,
        "meta_rev_at_epoch": 50217,
        "meta_bstar": 0.00045233,
        "meta_mean_motion_dot": 0.00026727,
        "meta_mean_motion_ddot": 0,
        "tle_line1": "1 41891U 16078H   25361.17989531  .00026727  00000+0  45233-3 0  9998",
        "tle_line2": "2 41891  34.9429 288.6623 0008857 324.6676  35.3458 15.50526979502175"
      },
      "geometry": {
        "type": "Point",
        "coordinates": [
          129.7635061566824,
          -15.280633476308159
        ]
      }
    },
    {
      "type": "Feature",
      "properties": {
        "norad_id": 43010,
        "name": "FENGYUN 3D",
        "group": "weather",
        "lat": 32.560645247381565,
        "lon": -37.79611017237456,
        "alt_km": 824.7903885672931,
        "timestamp": "2025-12-27T11:23:19.520668+00:00",
        "meta_object_name": "FENGYUN 3D",
        "meta_object_id": "2017-072A",
        "meta_epoch": "2025-12-27T04:28:04.388160",
        "meta_mean_motion": 14.19689225,
        "meta_eccentricity": 0.0001636,
        "meta_inclination": 98.9917,
        "meta_ra_of_asc_node": 327.7141,
        "meta_arg_of_pericenter": 143.3908,
        "meta_mean_anomaly": 216.7379,
        "meta_ephemeris_type": 0,
        "meta_classification_type": "U",
        "meta_norad_cat_id": 43010,
        "meta_element_set_no": 999,
        "meta_rev_at_epoch": 42058,
        "meta_bstar": 0.00026496,
        "meta_mean_motion_dot": 5.14e-06,
        "meta_mean_motion_ddot": 0,
        "tle_line1": "1 43010U 17072A   25361.18616190  .00000514  00000+0  26496-3 0  9993",
        "tle_line2": "2 43010  98.9917 327.7141 0001636 143.3908 216.7379 14.19689225420583"
      },
      "geometry": {
        "type": "Point",
        "coordinates": [
          -37.79611017237456,
          32.560645247381565
        ]
      }
    },
    {
      "type": "Feature",
      "properties": {
        "norad_id": 43013,
        "name": "NOAA 20 (JPSS-1)",
        "group": "weather",
        "lat": 3.052088658705864,
        "lon": 118.08242527903482,
        "alt_km": 829.9763406693019,
        "timestamp": "2025-12-27T11:23:19.520679+00:00",
        "meta_object_name": "NOAA 20 (JPSS-1)",
        "meta_object_id": "2017-073A",
        "meta_epoch": "2025-12-27T03:47:31.701120",
        "meta_mean_motion": 14.19529711,
        "meta_eccentricity": 0.0002051,
        "meta_inclination": 98.7617,
        "meta_ra_of_asc_node": 297.2982,
        "meta_arg_of_pericenter": 66.77,
        "meta_mean_anomaly": 293.3692,
        "meta_ephemeris_type": 0,
        "meta_classification_type": "U",
        "meta_norad_cat_id": 43013,
        "meta_element_set_no": 999,
        "meta_rev_at_epoch": 42006,
        "meta_bstar": 8.0447e-05,
        "meta_mean_motion_dot": 1.26e-06,
        "meta_mean_motion_ddot": 0,
        "tle_line1": "1 43013U 17073A   25361.15800580  .00000126  00000+0  80447-4 0  9998",
        "tle_line2": "2 43013  98.7617 297.2982 0002051  66.7700 293.3692 14.19529711420060"
      },
      "geometry": {
        "type": "Point",
        "coordinates": [
          118.08242527903482,
          3.052088658705864
        ]
      }
    },
    {
      "type": "Feature",
      "properties": {
        "norad_id": 43226,
        "name": "GOES 17",
        "group": "weather",
        "lat": 0.4966327886980359,
        "lon": 177.49377017124587,
        "alt_km": 35789.127176369344,
        "timestamp": "2025-12-27T11:23:19.520692+00:00",
        "meta_object_name": "GOES 17",
        "meta_object_id": "2018-022A",
        "meta_epoch": "2025-12-27T00:49:20.578080",
        "meta_mean_motion": 1.00271355,
        "meta_eccentricity": 0.0003213,
        "meta_inclination": 0.4926,
        "meta_ra_of_asc_node": 89.0032,
        "meta_arg_of_pericenter": 191.1292,
        "meta_mean_anomaly": 98.4754,
        "meta_ephemeris_type": 0,
        "meta_classification_type": "U",
        "meta_norad_cat_id": 43226,
        "meta_element_set_no": 999,
        "meta_rev_at_epoch": 2869,
        "meta_bstar": 0,
        "meta_mean_motion_dot": -1.6e-06,
        "meta_mean_motion_ddot": 0,
        "tle_line1": "1 43226U 18022A   25361.03426595 -.00000160  00000+0  00000+0 0  9997",
        "tle_line2": "2 43226   0.4926  89.0032 0003213 191.1292  98.4754  1.00271355 28692"
      },
      "geometry": {
        "type": "Point",
        "coordinates": [
          177.49377017124587,
          0.4966327886980359
        ]
      }
    },
    {
      "type": "Feature",
      "properties": {
        "norad_id": 43491,
        "name": "FENGYUN 2H",
        "group": "weather",
        "lat": -2.58576371158721,
        "lon": -13.622723698602453,
        "alt_km": 35788.3797906978,
        "timestamp": "2025-12-27T11:23:19.520704+00:00",
        "meta_object_name": "FENGYUN 2H",
        "meta_object_id": "2018-050A",
        "meta_epoch": "2025-12-27T03:06:20.069280",
        "meta_mean_motion": 1.00270024,
        "meta_eccentricity": 0.0002499,
        "meta_inclination": 2.5857,
        "meta_ra_of_asc_node": 81.1774,
        "meta_arg_of_pericenter": 167.0859,
        "meta_mean_anomaly": 333.5093,
        "meta_ephemeris_type": 0,
        "meta_classification_type": "U",
        "meta_norad_cat_id": 43491,
        "meta_element_set_no": 999,
        "meta_rev_at_epoch": 2771,
        "meta_bstar": 0,
        "meta_mean_motion_dot": -1.08e-06,
        "meta_mean_motion_ddot": 0,
        "tle_line1": "1 43491U 18050A   25361.12939895 -.00000108  00000+0  00000+0 0  9996",
        "tle_line2": "2 43491   2.5857  81.1774 0002499 167.0859 333.5093  1.00270024 27717"
      },
      "geometry": {
        "type": "Point",
        "coordinates": [
          -13.622723698602453,
          -2.58576371158721
        ]
      }
    },
    {
      "type": "Feature",
      "properties": {
        "norad_id": 43689,
        "name": "METOP-C",
        "group": "weather",
        "lat": 60.2688155950299,
        "lon": 43.48202553419941,
        "alt_km": 814.201330938301,
        "timestamp": "2025-12-27T11:23:19.520738+00:00",
        "meta_object_name": "METOP-C",
        "meta_object_id": "2018-087A",
        "meta_epoch": "2025-12-27T04:20:36.279744",
        "meta_mean_motion": 14.21489962,
        "meta_eccentricity": 5.18e-05,
        "meta_inclination": 98.6909,
        "meta_ra_of_asc_node": 58.7278,
        "meta_arg_of_pericenter": 11.2632,
        "meta_mean_anomaly": 348.8557,
        "meta_ephemeris_type": 0,
        "meta_classification_type": "U",
        "meta_norad_cat_id": 43689,
        "meta_element_set_no": 999,
        "meta_rev_at_epoch": 37039,
        "meta_bstar": 9.2729e-05,
        "meta_mean_motion_dot": 1.59e-06,
        "meta_mean_motion_ddot": 0,
        "tle_line1": "1 43689U 18087A   25361.18097546  .00000159  00000+0  92729-4 0  9998",
        "tle_line2": "2 43689  98.6909  58.7278 0000518  11.2632 348.8557 14.21489962370397"
      },
      "geometry": {
        "type": "Point",
        "coordinates": [
          43.48202553419941,
          60.2688155950299
        ]
      }
    }
  ]
}